start=new Date('2022-03-14T00:00:00.000Z').valueOf();
sats=[{"OBJECT_TYPE":"PAYLOAD","RCS_SIZE":"LARGE","OBJECT_ID":"2021-024P","INCLINATION":"53.0508","COUNTRY_CODE":"US","NORAD_CAT_ID":"47990","MEAN_MOTION_DDOT":"0.0000000000000","DECAY_DATE":null,"BSTAR":"-0.00238970000000","REF_FRAME":"TEME","PERIOD":"95.594","MEAN_ANOMALY":"340.0951","CENTER_NAME":"EARTH","MEAN_ELEMENT_THEORY":"SGP4","APOAPSIS":"548.506","GP_ID":"198657479","SEMIMAJOR_AXIS":"6925.434","TLE_LINE1":"1 47990U 21024P   22072.91668981 -.00035673  00000-0 -23897-2 0  9996","REV_AT_EPOCH":"5572","ECCENTRICITY":"0.00017430","EPHEMERIS_TYPE":"0","CLASSIFICATION_TYPE":"U","OBJECT_NAME":"STARLINK-2307","MEAN_MOTION_DOT":"-0.00035673","MEAN_MOTION":"15.06372281","TIME_SYSTEM":"UTC","ELEMENT_SET_NO":"999","EPOCH":"2022-03-13T22:00:01.999584","FILE":"3358011","SITE":"AFETR","TLE_LINE2":"2 47990  53.0508 306.3254 0001743  60.0785 340.0951 15.06372281 55722","LAUNCH_DATE":"2021-03-24","RA_OF_ASC_NODE":"306.3254","PERIAPSIS":"546.091","ARG_OF_PERICENTER":"60.0785"},{"REV_AT_EPOCH":"5550","TLE_LINE1":"1 47991U 21024Q   22072.91668981 -.00011831  00000-0 -77752-3 0  9997","SEMIMAJOR_AXIS":"6925.472","GP_ID":"198661337","APOAPSIS":"548.273","MEAN_ELEMENT_THEORY":"SGP4","CENTER_NAME":"EARTH","PERIOD":"95.595","MEAN_ANOMALY":"269.6580","REF_FRAME":"TEME","BSTAR":"-0.00077752000000","DECAY_DATE":null,"MEAN_MOTION_DDOT":"0.0000000000000","NORAD_CAT_ID":"47991","COUNTRY_CODE":"US","INCLINATION":"53.0557","OBJECT_ID":"2021-024Q","RCS_SIZE":"LARGE","OBJECT_TYPE":"PAYLOAD","ARG_OF_PERICENTER":"73.1629","PERIAPSIS":"546.401","RA_OF_ASC_NODE":"321.3280","LAUNCH_DATE":"2021-03-24","TLE_LINE2":"2 47991  53.0557 321.3280 0001352  73.1629 269.6580 15.06359723 55507","SITE":"AFETR","EPOCH":"2022-03-13T22:00:01.999584","FILE":"3358164","ELEMENT_SET_NO":"999","TIME_SYSTEM":"UTC","MEAN_MOTION":"15.06359723","MEAN_MOTION_DOT":"-0.00011831","OBJECT_NAME":"STARLINK-2279","CLASSIFICATION_TYPE":"U","EPHEMERIS_TYPE":"0","ECCENTRICITY":"0.00013520"},{"CLASSIFICATION_TYPE":"U","OBJECT_NAME":"STARLINK-2229","MEAN_MOTION_DOT":"-0.00007883","ECCENTRICITY":"0.00016050","EPHEMERIS_TYPE":"0","SITE":"AFETR","TLE_LINE2":"2 47992  53.0537 316.3339 0001605  60.8755 209.3948 15.06381694  3592","LAUNCH_DATE":"2021-03-24","PERIAPSIS":"546.158","RA_OF_ASC_NODE":"316.3339","ARG_OF_PERICENTER":"60.8755","MEAN_MOTION":"15.06381694","TIME_SYSTEM":"UTC","ELEMENT_SET_NO":"999","EPOCH":"2022-03-13T22:00:01.999584","FILE":"3358388","INCLINATION":"53.0537","COUNTRY_CODE":"US","NORAD_CAT_ID":"47992","MEAN_MOTION_DDOT":"0.0000000000000","DECAY_DATE":null,"OBJECT_TYPE":"PAYLOAD","RCS_SIZE":"LARGE","OBJECT_ID":"2021-024R","GP_ID":"198688839","SEMIMAJOR_AXIS":"6925.405","TLE_LINE1":"1 47992U 21024R   22072.91668981 -.00007883  00000-0 -51113-3 0  9993","REV_AT_EPOCH":"359","BSTAR":"-0.00051113000000","REF_FRAME":"TEME","MEAN_ANOMALY":"209.3948","PERIOD":"95.593","MEAN_ELEMENT_THEORY":"SGP4","CENTER_NAME":"EARTH","APOAPSIS":"548.381"},{"MEAN_MOTION":"15.06388312","TIME_SYSTEM":"UTC","FILE":"3358388","EPOCH":"2022-03-13T22:46:28.537824","ELEMENT_SET_NO":"999","TLE_LINE2":"2 47993  53.0557 356.1967 0001620  57.1944 302.9201 15.06388312 55559","SITE":"AFETR","LAUNCH_DATE":"2021-03-24","ARG_OF_PERICENTER":"57.1944","RA_OF_ASC_NODE":"356.1967","PERIAPSIS":"546.127","ECCENTRICITY":"0.00016200","EPHEMERIS_TYPE":"0","CLASSIFICATION_TYPE":"U","OBJECT_NAME":"STARLINK-2273","MEAN_MOTION_DOT":"-0.00004606","BSTAR":"-0.00029061000000","MEAN_ANOMALY":"302.9201","PERIOD":"95.593","REF_FRAME":"TEME","APOAPSIS":"548.371","MEAN_ELEMENT_THEORY":"SGP4","CENTER_NAME":"EARTH","GP_ID":"198688097","SEMIMAJOR_AXIS":"6925.384","TLE_LINE1":"1 47993U 21024S   22072.94894141 -.00004606  00000-0 -29061-3 0  9993","REV_AT_EPOCH":"5555","OBJECT_TYPE":"PAYLOAD","RCS_SIZE":"LARGE","OBJECT_ID":"2021-024S","COUNTRY_CODE":"US","INCLINATION":"53.0557","NORAD_CAT_ID":"47993","DECAY_DATE":null,"MEAN_MOTION_DDOT":"0.0000000000000"},{"EPHEMERIS_TYPE":"0","ECCENTRICITY":"0.00016500","MEAN_MOTION_DOT":"-0.00005119","OBJECT_NAME":"STARLINK-2290","CLASSIFICATION_TYPE":"U","ELEMENT_SET_NO":"999","FILE":"3358168","EPOCH":"2022-03-13T13:19:10.970112","TIME_SYSTEM":"UTC","MEAN_MOTION":"15.06387242","RA_OF_ASC_NODE":"12.9516","PERIAPSIS":"546.110","ARG_OF_PERICENTER":"58.9056","LAUNCH_DATE":"2021-03-24","SITE":"AFETR","TLE_LINE2":"2 47994  53.0566  12.9516 0001650  58.9056 301.2095 15.06387242 54769","OBJECT_ID":"2021-024T","RCS_SIZE":"LARGE","OBJECT_TYPE":"PAYLOAD","MEAN_MOTION_DDOT":"0.0000000000000","DECAY_DATE":null,"NORAD_CAT_ID":"47994","INCLINATION":"53.0566","COUNTRY_CODE":"US","MEAN_ELEMENT_THEORY":"SGP4","CENTER_NAME":"EARTH","APOAPSIS":"548.395","REF_FRAME":"TEME","MEAN_ANOMALY":"301.2095","PERIOD":"95.593","BSTAR":"-0.00032508000000","TLE_LINE1":"1 47994U 21024T   22072.55498808 -.00005119  00000-0 -32508-3 0  9991","REV_AT_EPOCH":"5476","GP_ID":"198661399","SEMIMAJOR_AXIS":"6925.388"},{"REV_AT_EPOCH":"5578","TLE_LINE1":"1 47995U 21024U   22072.93140334 -.00002585  00000-0 -15476-3 0  9991","SEMIMAJOR_AXIS":"6925.399","GP_ID":"198688592","MEAN_ELEMENT_THEORY":"SGP4","CENTER_NAME":"EARTH","APOAPSIS":"548.602","REF_FRAME":"TEME","MEAN_ANOMALY":"309.8484","PERIOD":"95.593","BSTAR":"-0.00015476000000","DECAY_DATE":null,"MEAN_MOTION_DDOT":"0.0000000000000","NORAD_CAT_ID":"47995","INCLINATION":"53.0557","COUNTRY_CODE":"US","OBJECT_ID":"2021-024U","RCS_SIZE":"LARGE","OBJECT_TYPE":"PAYLOAD","PERIAPSIS":"545.926","RA_OF_ASC_NODE":"336.2707","ARG_OF_PERICENTER":"50.2675","LAUNCH_DATE":"2021-03-24","SITE":"AFETR","TLE_LINE2":"2 47995  53.0557 336.2707 0001932  50.2675 309.8484 15.06383470 55787","ELEMENT_SET_NO":"999","EPOCH":"2022-03-13T22:21:13.248576","FILE":"3358388","TIME_SYSTEM":"UTC","MEAN_MOTION":"15.06383470","MEAN_MOTION_DOT":"-0.00002585","OBJECT_NAME":"STARLINK-2309","CLASSIFICATION_TYPE":"U","EPHEMERIS_TYPE":"0","ECCENTRICITY":"0.00019320"},{"OBJECT_TYPE":"PAYLOAD","RCS_SIZE":"LARGE","OBJECT_ID":"2021-024V","COUNTRY_CODE":"US","INCLINATION":"53.0425","NORAD_CAT_ID":"47996","DECAY_DATE":null,"MEAN_MOTION_DDOT":"0.0000000000000","BSTAR":"0.00098824000000","PERIOD":"93.725","MEAN_ANOMALY":"146.8371","REF_FRAME":"TEME","APOAPSIS":"458.881","MEAN_ELEMENT_THEORY":"SGP4","CENTER_NAME":"EARTH","GP_ID":"198689340","SEMIMAJOR_AXIS":"6834.878","TLE_LINE1":"1 47996U 21024V   22072.91668981  .00035393  00000-0  98824-3 0  9992","REV_AT_EPOCH":"364","ECCENTRICITY":"0.00031280","EPHEMERIS_TYPE":"0","CLASSIFICATION_TYPE":"U","OBJECT_NAME":"STARLINK-2260","MEAN_MOTION_DOT":"0.00035393","MEAN_MOTION":"15.36408274","TIME_SYSTEM":"UTC","FILE":"3358388","EPOCH":"2022-03-13T22:00:01.999584","ELEMENT_SET_NO":"999","TLE_LINE2":"2 47996  53.0425 277.0264 0003128 159.4347 146.8371 15.36408274  3644","SITE":"AFETR","LAUNCH_DATE":"2021-03-24","ARG_OF_PERICENTER":"159.4347","RA_OF_ASC_NODE":"277.0264","PERIAPSIS":"454.605"},{"OBJECT_ID":"2021-024W","RCS_SIZE":"LARGE","OBJECT_TYPE":"PAYLOAD","NORAD_CAT_ID":"47997","MEAN_MOTION_DDOT":"0.0000000000000","DECAY_DATE":null,"INCLINATION":"53.0571","COUNTRY_CODE":"US","MEAN_ELEMENT_THEORY":"SGP4","CENTER_NAME":"EARTH","APOAPSIS":"548.398","BSTAR":"-0.00015402000000","REF_FRAME":"TEME","PERIOD":"95.593","MEAN_ANOMALY":"299.2019","GP_ID":"198649922","SEMIMAJOR_AXIS":"6925.366","TLE_LINE1":"1 47997U 21024W   22072.53657511 -.00002575  00000-0 -15402-3 0  9997","REV_AT_EPOCH":"5528","EPHEMERIS_TYPE":"0","ECCENTRICITY":"0.00016840","OBJECT_NAME":"STARLINK-2266","MEAN_MOTION_DOT":"-0.00002575","CLASSIFICATION_TYPE":"U","ELEMENT_SET_NO":"999","EPOCH":"2022-03-13T12:52:40.089504","FILE":"3357855","MEAN_MOTION":"15.06394167","TIME_SYSTEM":"UTC","PERIAPSIS":"546.065","RA_OF_ASC_NODE":"13.0443","ARG_OF_PERICENTER":"60.9139","SITE":"AFETR","TLE_LINE2":"2 47997  53.0571  13.0443 0001684  60.9139 299.2019 15.06394167 55285","LAUNCH_DATE":"2021-03-24"},{"OBJECT_TYPE":"PAYLOAD","RCS_SIZE":"LARGE","OBJECT_ID":"2021-024X","INCLINATION":"53.0570","COUNTRY_CODE":"US","NORAD_CAT_ID":"47998","DECAY_DATE":null,"MEAN_MOTION_DDOT":"0.0000000000000","BSTAR":"0.00004396000000","REF_FRAME":"TEME","PERIOD":"95.592","MEAN_ANOMALY":"298.8735","MEAN_ELEMENT_THEORY":"SGP4","CENTER_NAME":"EARTH","APOAPSIS":"548.370","GP_ID":"198688346","SEMIMAJOR_AXIS":"6925.353","REV_AT_EPOCH":"5563","TLE_LINE1":"1 47998U 21024X   22072.91941581  .00000373  00000-0  43960-4 0  9996","ECCENTRICITY":"0.00016640","EPHEMERIS_TYPE":"0","CLASSIFICATION_TYPE":"U","OBJECT_NAME":"STARLINK-2296","MEAN_MOTION_DOT":"0.00000373","MEAN_MOTION":"15.06398698","TIME_SYSTEM":"UTC","ELEMENT_SET_NO":"999","EPOCH":"2022-03-13T22:03:57.525984","FILE":"3358388","SITE":"AFETR","TLE_LINE2":"2 47998  53.0570 346.3108 0001664  61.2421 298.8735 15.06398698 55633","LAUNCH_DATE":"2021-03-24","RA_OF_ASC_NODE":"346.3108","PERIAPSIS":"546.065","ARG_OF_PERICENTER":"61.2421"},{"INCLINATION":"53.0566","COUNTRY_CODE":"US","MEAN_MOTION_DDOT":"0.0000000000000","DECAY_DATE":null,"NORAD_CAT_ID":"47999","RCS_SIZE":"LARGE","OBJECT_TYPE":"PAYLOAD","OBJECT_ID":"2021-024Y","REV_AT_EPOCH":"360","TLE_LINE1":"1 47999U 21024Y   22072.91668981 -.00011627  00000-0 -76328-3 0  9996","GP_ID":"198689093","SEMIMAJOR_AXIS":"6925.399","REF_FRAME":"TEME","PERIOD":"95.593","MEAN_ANOMALY":"65.5065","BSTAR":"-0.00076328000000","MEAN_ELEMENT_THEORY":"SGP4","CENTER_NAME":"EARTH","APOAPSIS":"548.372","CLASSIFICATION_TYPE":"U","MEAN_MOTION_DOT":"-0.00011627","OBJECT_NAME":"STARLINK-2218","ECCENTRICITY":"0.00016000","EPHEMERIS_TYPE":"0","LAUNCH_DATE":"2021-03-24","SITE":"AFETR","TLE_LINE2":"2 47999  53.0566 316.3340 0001600  64.7616  65.5065 15.06383674  3601","PERIAPSIS":"546.156","RA_OF_ASC_NODE":"316.3340","ARG_OF_PERICENTER":"64.7616","TIME_SYSTEM":"UTC","MEAN_MOTION":"15.06383674","ELEMENT_SET_NO":"999","FILE":"3358388","EPOCH":"2022-03-13T22:00:01.999584"}];
